[{"OBJECT_NAME":"ONEWEB-0293","OBJECT_ID":"2021-075H","EPOCH":"2026-03-09T22:33:38.597184","MEAN_MOTION":13.1764919,"ECCENTRICITY":0.00019989,"INCLINATION":87.915,"RA_OF_ASC_NODE":25.574,"ARG_OF_PERICENTER":81.1011,"MEAN_ANOMALY":279.0347,"EPHEMERIS_TYPE":0,"CLASSIFICATION_TYPE":"U","NORAD_CAT_ID":49082,"ELEMENT_SET_NO":999,"REV_AT_EPOCH":22056,"BSTAR":0.00015336144,"MEAN_MOTION_DOT":7.2e-7,"MEAN_MOTION_DDOT":0},{"OBJECT_NAME":"SL-14 DEB","OBJECT_ID":"1991-056C","EPOCH":"2026-03-09T19:45:00.808992","MEAN_MOTION":13.18013758,"ECCENTRICITY":0.00036809,"INCLINATION":82.5539,"RA_OF_ASC_NODE":206.1276,"ARG_OF_PERICENTER":304.5802,"MEAN_ANOMALY":55.4974,"EPHEMERIS_TYPE":0,"CLASSIFICATION_TYPE":"U","NORAD_CAT_ID":45266,"ELEMENT_SET_NO":999,"REV_AT_EPOCH":29203,"BSTAR":0.00029517141,"MEAN_MOTION_DOT":1.28e-6,"MEAN_MOTION_DDOT":0}]
